NORAD_CAT_ID,OBJECT_NAME,OBJECT_TYPE,EPOCH,MEAN_MOTION,ECCENTRICITY,INCLINATION,RA_OF_ASC_NODE,ARG_OF_PERICENTER,MEAN_ANOMALY,BSTAR,MEAN_MOTION_DOT,MEAN_MOTION_DDOT,TLE_LINE0,TLE_LINE1,TLE_LINE2,SEMIMAJOR_AXIS,PERIOD,APOGEE,PERIGEE,DECAYED
51736.0,STARLINK-3447,PAYLOAD,2023-05-24 14:44:01,15.0884424,0.0001089,53.2162,218.4171,93.5493,266.5624,0.00014774,2.065e-05,0.0,0 STARLINK-3447,1 51736U 22016Y   23144.61390109  .00002065  00000-0  14774-3 0  9995,2 51736  53.2162 218.4171 0001089  93.5493 266.5624 15.08844240 69561,6917.867,95.437,540.486,538.979,0.0
51736.0,STARLINK-3447,PAYLOAD,2023-05-26 04:53:16,15.08839691,0.0001158,53.2154,211.2787,101.441,258.6712,2.1922e-05,6.1e-07,0.0,0 STARLINK-3447,1 51736U 22016Y   23146.20366614  .00000061  00000-0  21922-4 0  9994,2 51736  53.2154 211.2787 0001158 101.4410 258.6712 15.08839691 70938,6917.881,95.438,540.547,538.945,0.0
51736.0,STARLINK-3447,PAYLOAD,2023-05-26 09:39:26,15.08839433,0.0001165,53.2154,210.3869,99.9824,260.1299,1.3122e-05,-7.9e-07,0.0,0 STARLINK-3447,1 51736U 22016Y   23146.40238627 -.00000079  00000-0  13122-4 0  9991,2 51736  53.2154 210.3869 0001165  99.9824 260.1299 15.08839433 69836,6917.882,95.438,540.553,538.941,0.0
51736.0,STARLINK-3447,PAYLOAD,2023-05-27 11:05:36,15.08839026,0.0001107,53.2159,205.6323,87.4734,272.6385,3.9021e-05,3.33e-06,0.0,0 STARLINK-3447,1 51736U 22016Y   23147.46222691  .00000333  00000-0  39021-4 0  9990,2 51736  53.2159 205.6323 0001107  87.4734 272.6385 15.08839026 71128,6917.883,95.438,540.514,538.983,0.0
51736.0,STARLINK-3447,PAYLOAD,2023-05-27 14:16:22,15.08840001,0.0001104,53.2158,205.0372,88.4083,271.7035,4.5337e-05,4.34e-06,0.0,0 STARLINK-3447,1 51736U 22016Y   23147.59470607  .00000434  00000-0  45337-4 0  9995,2 51736  53.2158 205.0372 0001104  88.4083 271.7035 15.08840001 70014,6917.88,95.438,540.509,538.982,0.0
51736.0,STARLINK-3447,PAYLOAD,2023-05-27 23:48:41,15.08835153,0.0001115,53.2155,203.2529,88.5674,271.5446,4.5144e-05,4.31e-06,0.0,0 STARLINK-3447,1 51736U 22016Y   23147.99214946  .00000431  00000-0  45144-4 0  9994,2 51736  53.2155 203.2529 0001115  88.5674 271.5446 15.08835153 70076,6917.895,95.438,540.532,538.989,0.0
51736.0,STARLINK-3447,PAYLOAD,2023-05-28 12:31:46,15.08840163,0.0001141,53.2156,200.8741,90.985,269.1273,6.5774e-05,7.59e-06,0.0,0 STARLINK-3447,1 51736U 22016Y   23148.52206701  .00000759  00000-0  65774-4 0  9998,2 51736  53.2156 200.8741 0001141  90.9850 269.1273 15.08840163 71280,6917.88,95.438,540.534,538.956,0.0
51736.0,STARLINK-3447,PAYLOAD,2023-05-28 20:28:42,15.08841129,0.0001107,53.2154,199.387,86.9371,273.1748,7.7364e-05,9.44e-06,0.0,0 STARLINK-3447,1 51736U 22016Y   23148.85326612  .00000944  00000-0  77364-4 0  9992,2 51736  53.2154 199.3870 0001107  86.9371 273.1748 15.08841129 70204,6917.877,95.437,540.508,538.976,0.0
51736.0,STARLINK-3447,PAYLOAD,2023-05-29 12:22:33,15.08845699,0.0001142,53.2154,196.4134,86.2299,273.8824,8.519e-05,1.068e-05,0.0,0 STARLINK-3447,1 51736U 22016Y   23149.51566215  .00001068  00000-0  85190-4 0  9995,2 51736  53.2154 196.4134 0001142  86.2299 273.8824 15.08845699 70305,6917.863,95.437,540.518,538.938,0.0
51736.0,STARLINK-3447,PAYLOAD,2023-05-29 20:19:29,15.08838328,0.0001187,53.2156,194.9269,87.4652,272.6476,2.7235e-05,1.46e-06,0.0,0 STARLINK-3447,1 51736U 22016Y   23149.84686817  .00000146  00000-0  27235-4 0  9994,2 51736  53.2156 194.9269 0001187  87.4652 272.6476 15.08838328 70350,6917.885,95.438,540.572,538.929,0.0
51736.0,STARLINK-3447,PAYLOAD,2023-05-29 23:30:15,15.08835497,0.0001235,53.2154,194.3331,86.7399,273.3734,2.801e-05,1.58e-06,0.0,0 STARLINK-3447,1 51736U 22016Y   23149.97935039  .00000158  00000-0  28010-4 0  9996,2 51736  53.2154 194.3331 0001235  86.7399 273.3734 15.08835497 71503,6917.894,95.438,540.614,538.905,0.0
51736.0,STARLINK-3447,PAYLOAD,2023-05-30 12:13:20,15.08837419,0.0001209,53.2153,191.9539,87.0474,273.0657,6.1999e-06,-1.89e-06,0.0,0 STARLINK-3447,1 51736U 22016Y   23150.50927082 -.00000189  00000-0  61999-5 0  9995,2 51736  53.2153 191.9539 0001209  87.0474 273.0657 15.08837419 70454,6917.888,95.438,540.59,538.917,0.0
51736.0,STARLINK-3447,PAYLOAD,2023-05-30 20:10:16,15.08836132,0.0001213,53.2152,190.4668,86.8484,273.2647,-6.4767e-06,-3.91e-06,0.0,0 STARLINK-3447,1 51736U 22016Y   23150.84047243 -.00000391  00000-0 -64767-5 0  9996,2 51736  53.2152 190.4668 0001213  86.8484 273.2647 15.08836132 70501,6917.892,95.438,540.596,538.918,0.0
51736.0,STARLINK-3447,PAYLOAD,2023-05-31 02:31:49,15.08839429,0.0001193,53.2149,189.2765,87.774,272.3389,9.2406e-06,-1.41e-06,0.0,0 STARLINK-3447,1 51736U 22016Y   23151.10542972 -.00000141  00000-0  92406-5 0  9998,2 51736  53.2149 189.2765 0001193  87.7740 272.3389 15.08839429 71677,6917.882,95.438,540.572,538.922,0.0
51736.0,STARLINK-3447,PAYLOAD,2023-05-31 08:53:21,15.08840017,0.0001134,53.2148,188.0859,93.9012,266.211,5.2301e-06,-2.05e-06,0.0,0 STARLINK-3447,1 51736U 22016Y   23151.37038929 -.00000205  00000-0  52301-5 0  9990,2 51736  53.2148 188.0859 0001134  93.9012 266.2110 15.08840017 70581,6917.88,95.438,540.53,538.961,0.0
51736.0,STARLINK-3447,PAYLOAD,2023-05-31 20:01:03,15.08840015,0.0001093,53.215,186.0043,94.2485,265.8632,3.6204e-05,2.88e-06,0.0,0 STARLINK-3447,1 51736U 22016Y   23151.83406817  .00000288  00000-0  36204-4 0  9999,2 51736  53.2150 186.0043 0001093  94.2485 265.8632 15.08840015 70659,6917.88,95.438,540.501,538.989,0.0
51736.0,STARLINK-3447,PAYLOAD,2023-06-01 08:44:08,15.08839642,0.0001138,53.215,183.6262,87.4092,272.703,0.00010095,1.319e-05,0.0,0 STARLINK-3447,1 51736U 22016Y   23152.36398777  .00001319  00000-0  10095-3 0  9998,2 51736  53.2150 183.6262 0001138  87.4092 272.7030 15.08839642 70735,6917.881,95.438,540.534,538.959,0.0
51736.0,STARLINK-3447,PAYLOAD,2023-06-02 02:13:23,15.08834774,0.0001159,53.215,180.3558,84.4607,275.6518,1.7339e-05,-1.2e-07,0.0,0 STARLINK-3447,1 51736U 22016Y   23153.09263476 -.00000012  00000-0  17339-4 0  9995,2 51736  53.2150 180.3558 0001159  84.4607 275.6518 15.08834774 71970,6917.896,95.438,540.563,538.96,0.0
51736.0,STARLINK-3447,PAYLOAD,2023-06-02 08:34:56,15.0883366,0.0001144,53.215,179.1661,85.3319,274.7804,4.4188e-06,-2.17e-06,0.0,0 STARLINK-3447,1 51736U 22016Y   23153.35759639 -.00000217  00000-0  44188-5 0  9995,2 51736  53.2150 179.1661 0001144  85.3319 274.7804 15.08833660 70885,6917.9,95.438,540.556,538.973,0.0
51736.0,STARLINK-3447,PAYLOAD,2023-06-02 18:07:15,15.0883484,0.0001149,53.215,177.3822,82.7543,277.358,4.6505e-06,-2.14e-06,0.0,0 STARLINK-3447,1 51736U 22016Y   23153.75503720 -.00000214  00000-0  46505-5 0  9999,2 51736  53.2150 177.3822 0001149  82.7543 277.3580 15.08834840 70947,6917.896,95.438,540.556,538.966,0.0
51736.0,STARLINK-3447,PAYLOAD,2023-06-03 06:50:20,15.08838373,0.0001139,53.215,175.0029,86.718,273.3943,1.369e-05,-7e-07,0.0,0 STARLINK-3447,1 51736U 22016Y   23154.28495497 -.00000070  00000-0  13690-4 0  9997,2 51736  53.2150 175.0029 0001139  86.7180 273.3943 15.08838373 72150,6917.885,95.438,540.538,538.962,0.0
51736.0,STARLINK-3447,PAYLOAD,2023-06-03 17:58:02,15.08838625,0.0001119,53.2148,172.9207,87.853,272.259,2.9358e-05,1.79e-06,0.0,0 STARLINK-3447,1 51736U 22016Y   23154.74863436  .00000179  00000-0  29358-4 0  9997,2 51736  53.2148 172.9207 0001119  87.8530 272.2590 15.08838625 71098,6917.885,95.438,540.524,538.975,0.0
51736.0,STARLINK-3447,PAYLOAD,2023-06-04 09:51:53,15.08836831,0.0001073,53.2151,169.9474,88.524,271.5875,8.1429e-05,1.008e-05,0.0,0 STARLINK-3447,1 51736U 22016Y   23155.41103533  .00001008  00000-0  81429-4 0  9996,2 51736  53.2151 169.9474 0001073  88.5240 271.5875 15.08836831 72321,6917.89,95.438,540.497,539.013,0.0
51736.0,STARLINK-3447,PAYLOAD,2023-06-04 17:48:49,15.08836629,0.0001055,53.2151,168.4607,87.5896,272.5217,5.0735e-05,5.2e-06,0.0,0 STARLINK-3447,1 51736U 22016Y   23155.74223677  .00000520  00000-0  50735-4 0  9998,2 51736  53.2151 168.4607 0001055  87.5896 272.5217 15.08836629 71245,6917.891,95.438,540.486,539.026,0.0
51736.0,STARLINK-3447,PAYLOAD,2023-06-05 08:07:17,15.08839722,0.0001056,53.2153,165.7841,87.6131,272.4982,4.3492e-05,4.04e-06,0.0,0 STARLINK-3447,1 51736U 22016Y   23156.33839551  .00000404  00000-0  43492-4 0  9991,2 51736  53.2153 165.7841 0001056  87.6131 272.4982 15.08839722 71336,6917.881,95.438,540.477,539.016,0.0
51736.0,STARLINK-3447,PAYLOAD,2023-06-05 17:39:36,15.08838946,0.0001031,53.2153,164.0,89.56,270.551,3.4039e-05,2.54e-06,0.0,0 STARLINK-3447,1 51736U 22016Y   23156.73583636  .00000254  00000-0  34039-4 0  9995,2 51736  53.2153 164.0000 0001031  89.5600 270.5510 15.08838946 71399,6917.884,95.438,540.462,539.035,0.0
51736.0,STARLINK-3447,PAYLOAD,2023-06-06 03:11:55,15.0883805,0.0001037,53.2154,162.2158,89.5399,270.5712,2.8997e-05,1.74e-06,0.0,0 STARLINK-3447,1 51736U 22016Y   23157.13327749  .00000174  00000-0  28997-4 0  9998,2 51736  53.2154 162.2158 0001037  89.5399 270.5712 15.08838050 72587,6917.886,95.438,540.469,539.034,0.0
51736.0,STARLINK-3447,PAYLOAD,2023-06-06 06:22:41,15.08838628,0.0001036,53.2154,161.6211,89.1118,270.9993,3.0539e-05,1.98e-06,0.0,0 STARLINK-3447,1 51736U 22016Y   23157.26575716  .00000198  00000-0  30539-4 0  9992,2 51736  53.2154 161.6211 0001036  89.1118 270.9993 15.08838628 71477,6917.885,95.438,540.466,539.033,0.0
51736.0,STARLINK-3447,PAYLOAD,2023-06-07 09:24:14,15.08841789,0.0001061,53.2155,156.5658,88.8332,271.2782,4.8166e-05,4.79e-06,0.0,0 STARLINK-3447,1 51736U 22016Y   23158.39183486  .00000479  00000-0  48166-4 0  9993,2 51736  53.2155 156.5658 0001061  88.8332 271.2782 15.08841789 72774,6917.875,95.437,540.474,539.006,0.0
51736.0,STARLINK-3447,PAYLOAD,2023-06-07 17:21:10,15.08839755,0.0001079,53.2157,155.0791,88.1026,272.009,3.7807e-05,3.14e-06,0.0,0 STARLINK-3447,1 51736U 22016Y   23158.72303637  .00000314  00000-0  37807-4 0  9990,2 51736  53.2157 155.0791 0001079  88.1026 272.0090 15.08839755 71691,6917.881,95.438,540.493,539.0,0.0
